{"fetched_at":"2026-07-15T17:46:44.919Z","source":"https://celestrak.org/NORAD/elements/gp.php?GROUP=kuiper&FORMAT=JSON","constellation":"kuiper","records":[{"OBJECT_NAME":"KUIPER-00130","OBJECT_ID":"2025-228N","EPOCH":"2026-07-15T01:37:04.134144","CLASSIFICATION_TYPE":"U","MEAN_MOTION":14.79933338,"ECCENTRICITY":0.0000727,"INCLINATION":51.9022,"RA_OF_ASC_NODE":147.3777,"ARG_OF_PERICENTER":88.4225,"MEAN_ANOMALY":271.6821,"EPHEMERIS_TYPE":0,"NORAD_CAT_ID":65959,"ELEMENT_SET_NO":999,"REV_AT_EPOCH":3252,"BSTAR":0.00022437,"MEAN_MOTION_DOT":0.0000149,"MEAN_MOTION_DDOT":0},{"OBJECT_NAME":"KUIPER-00134","OBJECT_ID":"2025-228P","EPOCH":"2026-07-15T00:12:19.927008","CLASSIFICATION_TYPE":"U","MEAN_MOTION":15.41849209,"ECCENTRICITY":0.0006579,"INCLINATION":51.8713,"RA_OF_ASC_NODE":61.9465,"ARG_OF_PERICENTER":53.0903,"MEAN_ANOMALY":307.0688,"EPHEMERIS_TYPE":0,"NORAD_CAT_ID":65960,"ELEMENT_SET_NO":999,"REV_AT_EPOCH":4341,"BSTAR":0.00045137,"MEAN_MOTION_DOT":0.00019105,"MEAN_MOTION_DDOT":0},{"OBJECT_NAME":"KUIPER-00135","OBJECT_ID":"2025-228Q","EPOCH":"2026-07-15T04:02:58.463808","CLASSIFICATION_TYPE":"U","MEAN_MOTION":14.79940549,"ECCENTRICITY":0.0000752,"INCLINATION":51.9015,"RA_OF_ASC_NODE":146.9841,"ARG_OF_PERICENTER":76.6906,"MEAN_ANOMALY":283.414,"EPHEMERIS_TYPE":0,"NORAD_CAT_ID":65961,"ELEMENT_SET_NO":999,"REV_AT_EPOCH":4224,"BSTAR":0.00022177,"MEAN_MOTION_DOT":0.0000147,"MEAN_MOTION_DDOT":0},{"OBJECT_NAME":"KUIPER-00136","OBJECT_ID":"2025-228R","EPOCH":"2026-07-15T04:55:27.554592","CLASSIFICATION_TYPE":"U","MEAN_MOTION":14.79935848,"ECCENTRICITY":0.0000793,"INCLINATION":51.9001,"RA_OF_ASC_NODE":144.2776,"ARG_OF_PERICENTER":73.5421,"MEAN_ANOMALY":286.5628,"EPHEMERIS_TYPE":0,"NORAD_CAT_ID":65962,"ELEMENT_SET_NO":999,"REV_AT_EPOCH":4228,"BSTAR":0.00024652,"MEAN_MOTION_DOT":0.00001659,"MEAN_MOTION_DDOT":0},{"OBJECT_NAME":"KUIPER-00137","OBJECT_ID":"2025-228S","EPOCH":"2026-07-15T03:21:50.193792","CLASSIFICATION_TYPE":"U","MEAN_MOTION":14.79980683,"ECCENTRICITY":0.0000893,"INCLINATION":51.9019,"RA_OF_ASC_NODE":142.0602,"ARG_OF_PERICENTER":62.9562,"MEAN_ANOMALY":297.1492,"EPHEMERIS_TYPE":0,"NORAD_CAT_ID":65963,"ELEMENT_SET_NO":999,"REV_AT_EPOCH":4231,"BSTAR":-0.002605,"MEAN_MOTION_DOT":-0.00020043,"MEAN_MOTION_DDOT":0},{"OBJECT_NAME":"KUIPER-00138","OBJECT_ID":"2025-228T","EPOCH":"2026-07-15T01:00:05.065056","CLASSIFICATION_TYPE":"U","MEAN_MOTION":14.79949844,"ECCENTRICITY":0.0000532,"INCLINATION":51.8979,"RA_OF_ASC_NODE":139.9256,"ARG_OF_PERICENTER":88.2974,"MEAN_ANOMALY":271.8049,"EPHEMERIS_TYPE":0,"NORAD_CAT_ID":65964,"ELEMENT_SET_NO":999,"REV_AT_EPOCH":4233,"BSTAR":0.0003809,"MEAN_MOTION_DOT":0.00002685,"MEAN_MOTION_DDOT":0},{"OBJECT_NAME":"KUIPER-00140","OBJECT_ID":"2025-228U","EPOCH":"2026-07-15T00:56:13.426656","CLASSIFICATION_TYPE":"U","MEAN_MOTION":14.79932857,"ECCENTRICITY":0.0000741,"INCLINATION":51.8988,"RA_OF_ASC_NODE":142.5235,"ARG_OF_PERICENTER":82.82,"MEAN_ANOMALY":277.2847,"EPHEMERIS_TYPE":0,"NORAD_CAT_ID":65965,"ELEMENT_SET_NO":999,"REV_AT_EPOCH":4229,"BSTAR":0.00023708,"MEAN_MOTION_DOT":0.00001587,"MEAN_MOTION_DDOT":0},{"OBJECT_NAME":"KUIPER-00141","OBJECT_ID":"2025-228V","EPOCH":"2026-07-15T01:04:01.674048","CLASSIFICATION_TYPE":"U","MEAN_MOTION":14.79932435,"ECCENTRICITY":0.0000979,"INCLINATION":51.9018,"RA_OF_ASC_NODE":137.5548,"ARG_OF_PERICENTER":87.3649,"MEAN_ANOMALY":272.7426,"EPHEMERIS_TYPE":0,"NORAD_CAT_ID":65966,"ELEMENT_SET_NO":999,"REV_AT_EPOCH":4236,"BSTAR":0.000041862,"MEAN_MOTION_DOT":9.8e-7,"MEAN_MOTION_DDOT":0},{"OBJECT_NAME":"KUIPER-00146","OBJECT_ID":"2025-228W","EPOCH":"2026-07-15T03:25:57.207072","CLASSIFICATION_TYPE":"U","MEAN_MOTION":14.79965528,"ECCENTRICITY":0.0001093,"INCLINATION":51.9028,"RA_OF_ASC_NODE":139.6318,"ARG_OF_PERICENTER":54.1157,"MEAN_ANOMALY":305.9907,"EPHEMERIS_TYPE":0,"NORAD_CAT_ID":65967,"ELEMENT_SET_NO":999,"REV_AT_EPOCH":4234,"BSTAR":-0.00041766,"MEAN_MOTION_DOT":-0.00003406,"MEAN_MOTION_DDOT":0},{"OBJECT_NAME":"KUIPER-00149","OBJECT_ID":"2025-228X","EPOCH":"2026-07-15T04:22:24.483648","CLASSIFICATION_TYPE":"U","MEAN_MOTION":14.79928304,"ECCENTRICITY":0.0000895,"INCLINATION":51.9009,"RA_OF_ASC_NODE":134.3426,"ARG_OF_PERICENTER":84.8067,"MEAN_ANOMALY":275.2997,"EPHEMERIS_TYPE":0,"NORAD_CAT_ID":65968,"ELEMENT_SET_NO":999,"REV_AT_EPOCH":4242,"BSTAR":0.00024329,"MEAN_MOTION_DOT":0.00001634,"MEAN_MOTION_DDOT":0},{"OBJECT_NAME":"KUIPER-00154","OBJECT_ID":"2025-228Y","EPOCH":"2026-07-15T00:23:08.657952","CLASSIFICATION_TYPE":"U","MEAN_MOTION":14.79937345,"ECCENTRICITY":0.0000858,"INCLINATION":51.9001,"RA_OF_ASC_NODE":132.567,"ARG_OF_PERICENTER":83.572,"MEAN_ANOMALY":276.534,"EPHEMERIS_TYPE":0,"NORAD_CAT_ID":65969,"ELEMENT_SET_NO":999,"REV_AT_EPOCH":4243,"BSTAR":0.00024987,"MEAN_MOTION_DOT":0.00001684,"MEAN_MOTION_DDOT":0},{"OBJECT_NAME":"KUIPER-00157","OBJECT_ID":"2025-228Z","EPOCH":"2026-07-15T03:21:34.068096","CLASSIFICATION_TYPE":"U","MEAN_MOTION":14.8119632,"ECCENTRICITY":0.0001072,"INCLINATION":51.9021,"RA_OF_ASC_NODE":134.5715,"ARG_OF_PERICENTER":50.5103,"MEAN_ANOMALY":309.5955,"EPHEMERIS_TYPE":0,"NORAD_CAT_ID":65970,"ELEMENT_SET_NO":999,"REV_AT_EPOCH":4241,"BSTAR":0.00020267,"MEAN_MOTION_DOT":0.00001369,"MEAN_MOTION_DDOT":0},{"OBJECT_NAME":"KUIPER-00144","OBJECT_ID":"2025-301A","EPOCH":"2026-07-15T01:33:22.068000","CLASSIFICATION_TYPE":"U","MEAN_MOTION":14.79940392,"ECCENTRICITY":0.0000389,"INCLINATION":51.9008,"RA_OF_ASC_NODE":212.3653,"ARG_OF_PERICENTER":58.3408,"MEAN_ANOMALY":301.7593,"EPHEMERIS_TYPE":0,"NORAD_CAT_ID":67133,"ELEMENT_SET_NO":999,"REV_AT_EPOCH":3273,"BSTAR":0.0001681,"MEAN_MOTION_DOT":0.00001061,"MEAN_MOTION_DDOT":0},{"OBJECT_NAME":"KUIPER-00164","OBJECT_ID":"2025-301B","EPOCH":"2026-07-15T02:37:59.111616","CLASSIFICATION_TYPE":"U","MEAN_MOTION":14.76500418,"ECCENTRICITY":0.0001097,"INCLINATION":51.9026,"RA_OF_ASC_NODE":224.5798,"ARG_OF_PERICENTER":358.3498,"MEAN_ANOMALY":1.7459,"EPHEMERIS_TYPE":0,"NORAD_CAT_ID":67134,"ELEMENT_SET_NO":999,"REV_AT_EPOCH":3274,"BSTAR":0.00014866,"MEAN_MOTION_DOT":0.0000083,"MEAN_MOTION_DDOT":0},{"OBJECT_NAME":"KUIPER-00175","OBJECT_ID":"2025-301C","EPOCH":"2026-07-15T00:00:02.000160","CLASSIFICATION_TYPE":"U","MEAN_MOTION":14.79992402,"ECCENTRICITY":0.000092,"INCLINATION":51.8973,"RA_OF_ASC_NODE":207.6115,"ARG_OF_PERICENTER":126.0712,"MEAN_ANOMALY":40.0485,"EPHEMERIS_TYPE":0,"NORAD_CAT_ID":67135,"ELEMENT_SET_NO":999,"REV_AT_EPOCH":531,"BSTAR":0.0029573,"MEAN_MOTION_DOT":0.0002243,"MEAN_MOTION_DDOT":0},{"OBJECT_NAME":"KUIPER-00179","OBJECT_ID":"2025-301D","EPOCH":"2026-07-14T12:19:55.444224","CLASSIFICATION_TYPE":"U","MEAN_MOTION":14.79934494,"ECCENTRICITY":0.0000366,"INCLINATION":51.898,"RA_OF_ASC_NODE":224.7745,"ARG_OF_PERICENTER":82.1448,"MEAN_ANOMALY":277.9556,"EPHEMERIS_TYPE":0,"NORAD_CAT_ID":67136,"ELEMENT_SET_NO":999,"REV_AT_EPOCH":3269,"BSTAR":0.00016189,"MEAN_MOTION_DOT":0.00001013,"MEAN_MOTION_DDOT":0},{"OBJECT_NAME":"KUIPER-00181","OBJECT_ID":"2025-301E","EPOCH":"2026-07-14T15:14:56.239296","CLASSIFICATION_TYPE":"U","MEAN_MOTION":14.79924628,"ECCENTRICITY":0.00009683,"INCLINATION":51.9023,"RA_OF_ASC_NODE":236.7731,"ARG_OF_PERICENTER":68.8666,"MEAN_ANOMALY":291.24,"EPHEMERIS_TYPE":0,"NORAD_CAT_ID":67137,"ELEMENT_SET_NO":999,"REV_AT_EPOCH":3251,"BSTAR":0.00011906473,"MEAN_MOTION_DOT":0.00000686,"MEAN_MOTION_DDOT":0},{"OBJECT_NAME":"KUIPER-00183","OBJECT_ID":"2025-301F","EPOCH":"2026-07-15T01:16:46.861824","CLASSIFICATION_TYPE":"U","MEAN_MOTION":14.92763695,"ECCENTRICITY":0.000954,"INCLINATION":51.8919,"RA_OF_ASC_NODE":207.2046,"ARG_OF_PERICENTER":123.3096,"MEAN_ANOMALY":236.8787,"EPHEMERIS_TYPE":0,"NORAD_CAT_ID":67138,"ELEMENT_SET_NO":999,"REV_AT_EPOCH":3297,"BSTAR":0.00020618,"MEAN_MOTION_DOT":0.00001904,"MEAN_MOTION_DDOT":0},{"OBJECT_NAME":"KUIPER-00184","OBJECT_ID":"2025-301G","EPOCH":"2026-07-15T02:14:12.632928","CLASSIFICATION_TYPE":"U","MEAN_MOTION":14.79935628,"ECCENTRICITY":0.0000342,"INCLINATION":51.8978,"RA_OF_ASC_NODE":217.2155,"ARG_OF_PERICENTER":76.4417,"MEAN_ANOMALY":283.6583,"EPHEMERIS_TYPE":0,"NORAD_CAT_ID":67139,"ELEMENT_SET_NO":999,"REV_AT_EPOCH":3294,"BSTAR":0.00017291,"MEAN_MOTION_DOT":0.00001097,"MEAN_MOTION_DDOT":0},{"OBJECT_NAME":"KUIPER-00186","OBJECT_ID":"2025-301H","EPOCH":"2026-07-15T03:24:17.903232","CLASSIFICATION_TYPE":"U","MEAN_MOTION":14.79933791,"ECCENTRICITY":0.0000313,"INCLINATION":51.9015,"RA_OF_ASC_NODE":234.5445,"ARG_OF_PERICENTER":75.1787,"MEAN_ANOMALY":284.921,"EPHEMERIS_TYPE":0,"NORAD_CAT_ID":67140,"ELEMENT_SET_NO":999,"REV_AT_EPOCH":3243,"BSTAR":0.000021973,"MEAN_MOTION_DOT":-5.4e-7,"MEAN_MOTION_DDOT":0},{"OBJECT_NAME":"KUIPER-00187","OBJECT_ID":"2025-301J","EPOCH":"2026-07-15T03:20:27.428640","CLASSIFICATION_TYPE":"U","MEAN_MOTION":14.79934109,"ECCENTRICITY":0.0000418,"INCLINATION":51.9022,"RA_OF_ASC_NODE":237.0797,"ARG_OF_PERICENTER":99.4827,"MEAN_ANOMALY":260.6182,"EPHEMERIS_TYPE":0,"NORAD_CAT_ID":67141,"ELEMENT_SET_NO":999,"REV_AT_EPOCH":3239,"BSTAR":0.00016987,"MEAN_MOTION_DOT":0.00001074,"MEAN_MOTION_DDOT":0},{"OBJECT_NAME":"KUIPER-00188","OBJECT_ID":"2025-301K","EPOCH":"2026-07-15T00:07:48.040032","CLASSIFICATION_TYPE":"U","MEAN_MOTION":14.79923196,"ECCENTRICITY":0.0000432,"INCLINATION":51.9013,"RA_OF_ASC_NODE":205.258,"ARG_OF_PERICENTER":70.2068,"MEAN_ANOMALY":289.8941,"EPHEMERIS_TYPE":0,"NORAD_CAT_ID":67142,"ELEMENT_SET_NO":999,"REV_AT_EPOCH":3282,"BSTAR":0.00018247,"MEAN_MOTION_DOT":0.0000117,"MEAN_MOTION_DDOT":0},{"OBJECT_NAME":"KUIPER-00191","OBJECT_ID":"2025-301L","EPOCH":"2026-07-15T02:43:27.047136","CLASSIFICATION_TYPE":"U","MEAN_MOTION":14.79931039,"ECCENTRICITY":0.0000348,"INCLINATION":51.8998,"RA_OF_ASC_NODE":229.6809,"ARG_OF_PERICENTER":87.8295,"MEAN_ANOMALY":272.2707,"EPHEMERIS_TYPE":0,"NORAD_CAT_ID":67143,"ELEMENT_SET_NO":999,"REV_AT_EPOCH":3252,"BSTAR":-0.0000015595,"MEAN_MOTION_DOT":-0.00000233,"MEAN_MOTION_DDOT":0}]}
